{"type": "FeatureCollection", "features": [ {"type": "Feature", "properties": {"norad_id": 66618, "name": "STARLINK-35970", "group": "last-30-days", "lat": 45.380438898004336, "lon": -123.67829252725124, "alt_km": 410.66635887252687, "timestamp": "2025-12-12T18:57:42.886087+00:00", "meta": {"OBJECT_NAME": "STARLINK-35970", "OBJECT_ID": "2025-271B", "EPOCH": "2025-12-12T06:00:00.999648", "MEAN_MOTION": 15.51868614, "ECCENTRICITY": 0.00010568, "INCLINATION": 53.1592, "RA_OF_ASC_NODE": 189.4669, "ARG_OF_PERICENTER": 93.8983, "MEAN_ANOMALY": 192.1296, "EPHEMERIS_TYPE": 0, "CLASSIFICATION_TYPE": "U", "NORAD_CAT_ID": 66618, "ELEMENT_SET_NO": 999, "REV_AT_EPOCH": 416, "BSTAR": -0.033449891, "MEAN_MOTION_DOT": -0.01807846, "MEAN_MOTION_DDOT": 0}, "tle": {"line1": "1 66618U 25271B   25346.25001157 -.01807846  00000+0 -33450-1 0  9996", "line2": "2 66618  53.1592 189.4669 0001056  93.8983 192.1296 15.51868614  4165"}}, "geometry": {"type": "Point", "coordinates": [-123.67829252725124, 45.380438898004336]}}, {"type": "Feature", "properties": {"norad_id": 66619, "name": "STARLINK-35951", "group": "last-30-days", "lat": 13.614061645875173, "lon": -162.56440400582247, "alt_km": 416.2790325066935, "timestamp": "2025-12-12T18:57:42.886097+00:00", "meta": {"OBJECT_NAME": "STARLINK-35951", "OBJECT_ID": "2025-271C", "EPOCH": "2025-12-12T06:00:00.999648", "MEAN_MOTION": 15.51864902, "ECCENTRICITY": 0.00010578, "INCLINATION": 53.1591, "RA_OF_ASC_NODE": 189.5627, "ARG_OF_PERICENTER": 100.4046, "MEAN_ANOMALY": 139.9692, "EPHEMERIS_TYPE": 0, "CLASSIFICATION_TYPE": "U", "NORAD_CAT_ID": 66619, "ELEMENT_SET_NO": 999, "REV_AT_EPOCH": 416, "BSTAR": -0.033423301, "MEAN_MOTION_DOT": -0.01806357, "MEAN_MOTION_DDOT": 0}, "tle": {"line1": "1 66619U 25271C   25346.25001157 -.01806357  00000+0 -33423-1 0  9993", "line2": "2 66619  53.1591 189.5627 0001057 100.4046 139.9692 15.51864902  4161"}}, "geometry": {"type": "Point", "coordinates": [-162.56440400582247, 13.614061645875173]}}, {"type": "Feature", "properties": {"norad_id": 66620, "name": "STARLINK-35936", "group": "last-30-days", "lat": 9.049958328955844, "lon": -166.15452744793305, "alt_km": 417.0039427242082, "timestamp": "2025-12-12T18:57:42.886107+00:00", "meta": {"OBJECT_NAME": "STARLINK-35936", "OBJECT_ID": "2025-271D", "EPOCH": "2025-12-12T06:00:00.999648", "MEAN_MOTION": 15.518764, "ECCENTRICITY": 0.00010462, "INCLINATION": 53.1593, "RA_OF_ASC_NODE": 189.5757, "ARG_OF_PERICENTER": 89.5913, "MEAN_ANOMALY": 145.0291, "EPHEMERIS_TYPE": 0, "CLASSIFICATION_TYPE": "U", "NORAD_CAT_ID": 66620, "ELEMENT_SET_NO": 999, "REV_AT_EPOCH": 416, "BSTAR": -0.034014852, "MEAN_MOTION_DOT": -0.01835321, "MEAN_MOTION_DDOT": 0}, "tle": {"line1": "1 66620U 25271D   25346.25001157 -.01835321  00000+0 -34015-1 0  9996", "line2": "2 66620  53.1593 189.5757 0001046  89.5913 145.0291 15.51876400  4166"}}, "geometry": {"type": "Point", "coordinates": [-166.15452744793305, 9.049958328955844]}}, {"type": "Feature", "properties": {"norad_id": 66621, "name": "STARLINK-35847", "group": "last-30-days", "lat": 47.138864567872595, "lon": -119.23797512266137, "alt_km": 410.3364890508137, "timestamp": "2025-12-12T18:57:42.886117+00:00", "meta": {"OBJECT_NAME": "STARLINK-35847", "OBJECT_ID": "2025-271E", "EPOCH": "2025-12-12T06:00:00.999648", "MEAN_MOTION": 15.51867295, "ECCENTRICITY": 0.00010885, "INCLINATION": 53.1597, "RA_OF_ASC_NODE": 189.4592, "ARG_OF_PERICENTER": 86.7853, "MEAN_ANOMALY": 202.782, "EPHEMERIS_TYPE": 0, "CLASSIFICATION_TYPE": "U", "NORAD_CAT_ID": 66621, "ELEMENT_SET_NO": 999, "REV_AT_EPOCH": 416, "BSTAR": -0.033485283, "MEAN_MOTION_DOT": -0.01809482, "MEAN_MOTION_DDOT": 0}, "tle": {"line1": "1 66621U 25271E   25346.25001157 -.01809482  00000+0 -33485-1 0  9996", "line2": "2 66621  53.1597 189.4592 0001088  86.7853 202.7820 15.51867295  4166"}}, "geometry": {"type": "Point", "coordinates": [-119.23797512266137, 47.138864567872595]}}, {"type": "Feature", "properties": {"norad_id": 66622, "name": "STARLINK-35950", "group": "last-30-days", "lat": 15.111277568779023, "lon": -161.34863560843024, "alt_km": 415.971026573633, "timestamp": "2025-12-12T18:57:42.886127+00:00", "meta": {"OBJECT_NAME": "STARLINK-35950", "OBJECT_ID": "2025-271F", "EPOCH": "2025-12-12T06:00:00.999648", "MEAN_MOTION": 15.51872792, "ECCENTRICITY": 0.00010537, "INCLINATION": 53.1593, "RA_OF_ASC_NODE": 189.5596, "ARG_OF_PERICENTER": 90.2254, "MEAN_ANOMALY": 152.0628, "EPHEMERIS_TYPE": 0, "CLASSIFICATION_TYPE": "U", "NORAD_CAT_ID": 66622, "ELEMENT_SET_NO": 999, "REV_AT_EPOCH": 416, "BSTAR": -0.033817776, "MEAN_MOTION_DOT": -0.01825698, "MEAN_MOTION_DDOT": 0}, "tle": {"line1": "1 66622U 25271F   25346.25001157 -.01825698  00000+0 -33818-1 0  9994", "line2": "2 66622  53.1593 189.5596 0001053  90.2254 152.0628 15.51872792  4166"}}, "geometry": {"type": "Point", "coordinates": [-161.34863560843024, 15.111277568779023]}}, {"type": "Feature", "properties": {"norad_id": 66623, "name": "STARLINK-35920", "group": "last-30-days", "lat": 18.089444419948006, "lon": -158.86205677774964, "alt_km": 415.44639520470446, "timestamp": "2025-12-12T18:57:42.886136+00:00", "meta": {"OBJECT_NAME": "STARLINK-35920", "OBJECT_ID": "2025-271G", "EPOCH": "2025-12-12T06:00:00.999648", "MEAN_MOTION": 15.51878998, "ECCENTRICITY": 0.00012018, "INCLINATION": 53.1595, "RA_OF_ASC_NODE": 189.5508, "ARG_OF_PERICENTER": 87.4941, "MEAN_ANOMALY": 158.6269, "EPHEMERIS_TYPE": 0, "CLASSIFICATION_TYPE": "U", "NORAD_CAT_ID": 66623, "ELEMENT_SET_NO": 999, "REV_AT_EPOCH": 416, "BSTAR": -0.034258529, "MEAN_MOTION_DOT": -0.01847187, "MEAN_MOTION_DDOT": 0}, "tle": {"line1": "1 66623U 25271G   25346.25001157 -.01847187  00000+0 -34259-1 0  9992", "line2": "2 66623  53.1595 189.5508 0001201  87.4941 158.6269 15.51878998  4165"}}, "geometry": {"type": "Point", "coordinates": [-158.86205677774964, 18.089444419948006]}}, {"type": "Feature", "properties": {"norad_id": 66624, "name": "STARLINK-35927", "group": "last-30-days", "lat": 16.611026459450894, "lon": -160.1087284482463, "alt_km": 415.64977753661515, "timestamp": "2025-12-12T18:57:42.886146+00:00", "meta": {"OBJECT_NAME": "STARLINK-35927", "OBJECT_ID": "2025-271H", "EPOCH": "2025-12-12T06:00:00.999648", "MEAN_MOTION": 15.51877435, "ECCENTRICITY": 0.0001051, "INCLINATION": 53.1592, "RA_OF_ASC_NODE": 189.5556, "ARG_OF_PERICENTER": 82.7457, "MEAN_ANOMALY": 161.4583, "EPHEMERIS_TYPE": 0, "CLASSIFICATION_TYPE": "U", "NORAD_CAT_ID": 66624, "ELEMENT_SET_NO": 999, "REV_AT_EPOCH": 416, "BSTAR": -0.033946682, "MEAN_MOTION_DOT": -0.0183213, "MEAN_MOTION_DDOT": 0}, "tle": {"line1": "1 66624U 25271H   25346.25001157 -.01832130  00000+0 -33947-1 0  9998", "line2": "2 66624  53.1592 189.5556 0001051  82.7457 161.4583 15.51877435  4165"}}, "geometry": {"type": "Point", "coordinates": [-160.1087284482463, 16.611026459450894]}}, {"type": "Feature", "properties": {"norad_id": 66625, "name": "STARLINK-35929", "group": "last-30-days", "lat": 19.57319735968814, "lon": -157.58151200213413, "alt_km": 415.1994458345316, "timestamp": "2025-12-12T18:57:42.886159+00:00", "meta": {"OBJECT_NAME": "STARLINK-35929", "OBJECT_ID": "2025-271J", "EPOCH": "2025-12-12T06:00:00.999648", "MEAN_MOTION": 15.51879169, "ECCENTRICITY": 0.00011852, "INCLINATION": 53.1597, "RA_OF_ASC_NODE": 189.5468, "ARG_OF_PERICENTER": 88.2138, "MEAN_ANOMALY": 159.8241, "EPHEMERIS_TYPE": 0, "CLASSIFICATION_TYPE": "U", "NORAD_CAT_ID": 66625, "ELEMENT_SET_NO": 999, "REV_AT_EPOCH": 416, "BSTAR": -0.034273015, "MEAN_MOTION_DOT": -0.01847877, "MEAN_MOTION_DDOT": 0}, "tle": {"line1": "1 66625U 25271J   25346.25001157 -.01847877  00000+0 -34273-1 0  9996", "line2": "2 66625  53.1597 189.5468 0001185  88.2138 159.8241 15.51879169  4166"}}, "geometry": {"type": "Point", "coordinates": [-157.58151200213413, 19.57319735968814]}}, {"type": "Feature", "properties": {"norad_id": 66626, "name": "STARLINK-35902", "group": "last-30-days", "lat": 21.06108067960517, "lon": -156.2647043042178, "alt_km": 414.92747792413775, "timestamp": "2025-12-12T18:57:42.886168+00:00", "meta": {"OBJECT_NAME": "STARLINK-35902", "OBJECT_ID": "2025-271K", "EPOCH": "2025-12-12T06:00:00.999648", "MEAN_MOTION": 15.51874788, "ECCENTRICITY": 0.00010925, "INCLINATION": 53.1596, "RA_OF_ASC_NODE": 189.5431, "ARG_OF_PERICENTER": 89.504, "MEAN_ANOMALY": 160.4531, "EPHEMERIS_TYPE": 0, "CLASSIFICATION_TYPE": "U", "NORAD_CAT_ID": 66626, "ELEMENT_SET_NO": 999, "REV_AT_EPOCH": 416, "BSTAR": -0.033910558, "MEAN_MOTION_DOT": -0.01830271, "MEAN_MOTION_DDOT": 0}, "tle": {"line1": "1 66626U 25271K   25346.25001157 -.01830271  00000+0 -33911-1 0  9995", "line2": "2 66626  53.1596 189.5431 0001092  89.5040 160.4531 15.51874788  4161"}}, "geometry": {"type": "Point", "coordinates": [-156.2647043042178, 21.06108067960517]}}, {"type": "Feature", "properties": {"norad_id": 66627, "name": "STARLINK-35904", "group": "last-30-days", "lat": 22.52668898315817, "lon": -154.93283254497507, "alt_km": 414.6832379669413, "timestamp": "2025-12-12T18:57:42.886180+00:00", "meta": {"OBJECT_NAME": "STARLINK-35904", "OBJECT_ID": "2025-271L", "EPOCH": "2025-12-12T06:00:00.999648", "MEAN_MOTION": 15.51872707, "ECCENTRICITY": 0.0001059, "INCLINATION": 53.1598, "RA_OF_ASC_NODE": 189.539, "ARG_OF_PERICENTER": 91.3549, "MEAN_ANOMALY": 160.5173, "EPHEMERIS_TYPE": 0, "CLASSIFICATION_TYPE": "U", "NORAD_CAT_ID": 66627, "ELEMENT_SET_NO": 999, "REV_AT_EPOCH": 400, "BSTAR": -0.033800144, "MEAN_MOTION_DOT": -0.01824853, "MEAN_MOTION_DDOT": 0}, "tle": {"line1": "1 66627U 25271L   25346.25001157 -.01824853  00000+0 -33800-1 0  9992", "line2": "2 66627  53.1598 189.5390 0001059  91.3549 160.5173 15.51872707  4001"}}, "geometry": {"type": "Point", "coordinates": [-154.93283254497507, 22.52668898315817]}}]}